[{"OBJECT_NAME":"STARLINK-33989","OBJECT_ID":"2025-098D","EPOCH":"2026-03-09T23:20:31.697376","MEAN_MOTION":14.98336332,"ECCENTRICITY":0.00025574,"INCLINATION":70.0002,"RA_OF_ASC_NODE":273.7909,"ARG_OF_PERICENTER":271.3373,"MEAN_ANOMALY":88.7493,"EPHEMERIS_TYPE":0,"CLASSIFICATION_TYPE":"U","NORAD_CAT_ID":63929,"ELEMENT_SET_NO":999,"REV_AT_EPOCH":4661,"BSTAR":0.00049816126,"MEAN_MOTION_DOT":5.857e-5,"MEAN_MOTION_DDOT":0},{"OBJECT_NAME":"FENGYUN 1C DEB","OBJECT_ID":"1999-025BBA","EPOCH":"2026-03-08T04:01:46.595424","MEAN_MOTION":14.68382206,"ECCENTRICITY":0.01906782,"INCLINATION":99.0027,"RA_OF_ASC_NODE":196.6188,"ARG_OF_PERICENTER":258.0888,"MEAN_ANOMALY":99.8879,"EPHEMERIS_TYPE":0,"CLASSIFICATION_TYPE":"U","NORAD_CAT_ID":30960,"ELEMENT_SET_NO":999,"REV_AT_EPOCH":99951,"BSTAR":0.0022197351,"MEAN_MOTION_DOT":0.00016894,"MEAN_MOTION_DDOT":0}]
